LEMUR-1                 
1 40044U 14033AL  26060.41684970  .00003136  00000+0  36816-3 0  9995
2 40044  97.7694 212.7473 0049923  72.4588 288.2073 14.84745113629479
LEMUR-2-GREENBERG       
1 42837U 17042N   26060.47143757  .00021944  00000+0  81339-3 0  9996
2 42837  97.3760 241.8931 0009660  31.6545 328.5274 15.27595674471926
LEMUR-2-ANDIS           
1 42838U 17042P   26060.45131726  .00027896  00000+0  95687-3 0  9991
2 42838  97.3644 241.7528 0009549  32.2854 327.8969 15.30088375471950
LEMUR-2-MONSON          
1 42839U 17042Q   26060.45587497  .00019219  00000+0  77929-3 0  9991
2 42839  97.4016 241.9890 0007005  21.1978 338.9549 15.24652701471734
LEMUR-2-FURIAUS         
1 42840U 17042R   26060.43700802  .00027988  00000+0  10957-2 0  9997
2 42840  97.3734 240.0892 0007639  86.2878 273.9234 15.25747719471754
LEMUR-2-PETERG          
1 42841U 17042S   26060.50023645  .00025807  00000+0  91108-3 0  9995
2 42841  97.3964 245.7191 0004071  10.9897 349.1431 15.29200398471954
LEMUR-2-DEMBITZ         
1 42842U 17042T   26060.47896367  .00021401  00000+0  81899-3 0  9993
2 42842  97.3790 243.0207 0007358  44.3684 315.8143 15.26562161471896
LEMUR-2-ZACHARY         
1 42845U 17042W   26060.47377395  .00047368  00000+0  11381-2 0  9999
2 42845  97.3652 250.4932 0003715  47.7827 312.3734 15.41183212472568
LEMUR-2-JIN-LUEN        
1 43182U 18014C   26060.35082236  .00217482  00000+0  14318-2 0  9997
2 43182  97.5458 349.8778 0001903  72.7850 287.3623 15.75029969444158
LEMUR-2-KADI            
1 43184U 18014E   26060.34719550  .00097250  00000+0  10921-2 0  9999
2 43184  97.4726 344.5432 0001577  32.5440 327.5914 15.62309327444089
LEMUR-2-AMANDA-SVANTE   
1 48269U 21034B   26060.26396360  .00030858  00000+0  11335-2 0  9996
2 48269  97.5858 136.1982 0001936 233.4458 126.6603 15.27867482264546
LEMUR-2-SPECIAL-K       
1 48273U 21034F   26060.22997649  .00075039  00000+0  16364-2 0  9991
2 48273  97.5737 141.1856 0001292 219.8325 140.2828 15.43970037264932
LEMUR-2-EMBRIONOVIS     
1 56970U 23084AQ  26060.32454789  .00009264  00000+0  27964-3 0  9991
2 56970  97.6109 200.7393 0008785 344.9657  15.1323 15.34468109151127
LEMUR-2-MANO            
1 57390U 23100E   26060.03841592  .00123832  00000+0  16215-2 0  9991
2 57390  99.4568  79.7254 0003198  59.1044 301.0519 15.58157988145135
LEMUR-2-DEVERILL-M-T    
1 57391U 23100F   26060.49924530  .00031948  00000+0  96453-3 0  9995
2 57391  99.4577  68.6448 0008934  52.3070 307.8975 15.34183588144706
LEMUR-2-BASS            
1 58259U 23174D   26060.18057958  .00019737  00000+0  50564-3 0  9992
2 58259  97.3902 143.6664 0007805 191.2018 168.9055 15.39389506128726
LEMUR-2-JK0903EM1407    
1 58336U 23174CJ  26060.19582263  .00028490  00000+0  58126-3 0  9999
2 58336  97.3936 148.1047 0006285 143.3587 216.8094 15.46146480129013
LEMUR-2-MJR092620       
1 58340U 23174CN  26060.20140142  .00014502  00000+0  34329-3 0  9990
2 58340  97.4002 148.5121 0007923 141.1854 218.9963 15.41859688128993
LEMUR-2-NIMBUS2000      
1 58899U 24022A   26060.48614512  .00019726  00000+0  55613-3 0  9991
2 58899  97.4237 269.3248 0010291 139.9125 220.2880 15.36404214115717
LEMUR-2-VALHALLA        
1 58900U 24022B   26060.46402897  .00020302  00000+0  57651-3 0  9999
2 58900  97.4236 269.3392 0010908 136.0891 224.1221 15.36167272115714
LEMUR-2-OBA-NI-JESU     
1 58902U 24022D   26060.16009494  .00098310  00000+0  10553-2 0  9997
2 58902  97.4080 277.7919 0005178  94.9182 265.2668 15.63455939116261
LEMUR-2-CAEL            
1 58903U 24022E   26060.49281669  .00019785  00000+0  54212-3 0  9990
2 58903  97.4223 270.1293 0009329 120.0350 240.1821 15.37301134115779
LEMUR-2-JOHNNYTRUONG    
1 59146U 24043BA  26060.40348051  .00040546  00000+0  66388-3 0  9999
2 59146  97.5241 206.1701 0005380 212.9583 147.1334 15.52375466111277
LEMUR-2-TOMATOKECHUP    
1 60471U 24149D   26060.21013970  .00013658  00000+0  42404-3 0  9994
2 60471  97.3864 142.1560 0000735 216.7858 143.3334 15.33492060 85601
LEMUR-2-STELLA          
1 60533U 24149BT  26060.43953127  .00015659  00000+0  98794-3 0  9990
2 60533  97.6793 142.6162 0001434 100.3781 259.7609 15.09191092 84236
LEMUR-2-MARHISYAM       
1 60536U 24149BW  26060.45086847  .00014856  00000+0  94899-3 0  9991
2 60536  97.6926 142.9581 0003231 126.8780 233.2745 15.08746003 84228
LEMUR-2-AHMED-ASRAR     
1 60576U 24149DN  26060.45064146  .00015108  00000+0  92966-3 0  9997
2 60576  97.7046 144.6546 0002215  43.4364 316.7039 15.10112202 84290
LEMUR-2-LLOYD           
1 60577U 24149DP  26060.22684583  .00012882  00000+0  86494-3 0  9991
2 60577  97.6814 141.4631 0004958 147.8147 212.3383 15.06933341 84122
LEMUR-2-SQUIRRELCOMM    
1 60578U 24149DQ  26060.18826431  .00007683  00000+0  53505-3 0  9997
2 60578  97.6766 141.5328 0006507  67.0510 293.1403 15.05712886 84142
LEMUR-2-SIERRINI        
1 60579U 24149DR  26060.45123129  .00014925  00000+0  96191-3 0  9997
2 60579  97.6888 142.7541 0006056 174.6307 185.4987 15.08406508 84207
